[{"OBJECT_NAME":"STARLINK-1679","OBJECT_ID":"2020-070AB","EPOCH":"2026-03-10T00:00:02.999808","MEAN_MOTION":15.5813212,"ECCENTRICITY":0.00035105,"INCLINATION":53.046,"RA_OF_ASC_NODE":122.6633,"ARG_OF_PERICENTER":245.3891,"MEAN_ANOMALY":271.8792,"EPHEMERIS_TYPE":0,"CLASSIFICATION_TYPE":"U","NORAD_CAT_ID":46557,"ELEMENT_SET_NO":999,"REV_AT_EPOCH":592,"BSTAR":0.0024151484,"MEAN_MOTION_DOT":0.00189169,"MEAN_MOTION_DDOT":0},{"OBJECT_NAME":"STARLINK-36404","OBJECT_ID":"2026-022S","EPOCH":"2026-03-09T22:00:01.999584","MEAN_MOTION":15.63480189,"ECCENTRICITY":0.00017208,"INCLINATION":97.2848,"RA_OF_ASC_NODE":102.9106,"ARG_OF_PERICENTER":71.412,"MEAN_ANOMALY":339.7208,"EPHEMERIS_TYPE":0,"CLASSIFICATION_TYPE":"U","NORAD_CAT_ID":67664,"ELEMENT_SET_NO":999,"REV_AT_EPOCH":608,"BSTAR":-0.023644259,"MEAN_MOTION_DOT":-0.01928389,"MEAN_MOTION_DDOT":0}]
